NORAD_CAT_ID,OBJECT_NAME,OBJECT_TYPE,EPOCH,MEAN_MOTION,ECCENTRICITY,INCLINATION,RA_OF_ASC_NODE,ARG_OF_PERICENTER,MEAN_ANOMALY,BSTAR,MEAN_MOTION_DOT,MEAN_MOTION_DDOT,TLE_LINE0,TLE_LINE1,TLE_LINE2,SEMIMAJOR_AXIS,PERIOD,APOGEE,PERIGEE,DECAYED
53970.0,STARLINK-4567,PAYLOAD,2023-10-14 17:59:17,15.08828323,0.0001686,53.2175,195.9004,91.5925,268.526,-0.00020331,-3.521e-05,0.0,0 STARLINK-4567,1 53970U 22125G   23287.74951151 -.00003521  00000-0 -20331-3 0  9996,2 53970  53.2175 195.9004 0001686  91.5925 268.5260 15.08828323 57077,6917.916,95.438,540.947,538.615,0.0
53970.0,STARLINK-4567,PAYLOAD,2023-10-15 03:31:36,15.08835055,0.0001694,53.2173,194.115,103.9814,256.1367,5.9471e-05,6.58e-06,0.0,0 STARLINK-4567,1 53970U 22125G   23288.14695161  .00000658  00000-0  59471-4 0  9991,2 53970  53.2173 194.1150 0001694 103.9814 256.1367 15.08835055 57130,6917.896,95.438,540.932,538.589,0.0
53970.0,STARLINK-4567,PAYLOAD,2023-10-15 11:28:32,15.08830581,0.0001687,53.2165,192.6277,105.9107,254.2071,7.7904e-05,9.52e-06,0.0,0 STARLINK-4567,1 53970U 22125G   23288.47815590  .00000952  00000-0  77904-4 0  9995,2 53970  53.2165 192.6277 0001687 105.9107 254.2071 15.08830581 57122,6917.909,95.438,540.941,538.607,0.0
53970.0,STARLINK-4567,PAYLOAD,2023-10-15 21:00:51,15.08839948,0.0001458,53.2158,190.8433,94.1692,265.9467,0.00028397,4.234e-05,0.0,0 STARLINK-4567,1 53970U 22125G   23288.87559587  .00004234  00000-0  28397-3 0  9998,2 53970  53.2158 190.8433 0001458  94.1692 265.9467 15.08839948 57182,6917.881,95.438,540.754,538.737,0.0
53970.0,STARLINK-4567,PAYLOAD,2023-10-16 03:22:23,15.08847008,0.0001545,53.2163,189.6534,103.3624,256.754,0.00070036,0.00010878,0.0,0 STARLINK-4567,1 53970U 22125G   23289.14055445  .00010878  00000-0  70036-3 0  9991,2 53970  53.2163 189.6534 0001545 103.3624 256.7540 15.08847008 57222,6917.859,95.437,540.793,538.655,0.0
53970.0,STARLINK-4567,PAYLOAD,2023-10-17 09:34:42,15.08850556,0.0001106,53.2169,184.0025,80.8041,279.3076,0.00023412,3.441e-05,0.0,0 STARLINK-4567,1 53970U 22125G   23290.39910841  .00003441  00000-0  23412-3 0  9994,2 53970  53.2169 184.0025 0001106  80.8041 279.3076 15.08850556 57471,6917.848,95.437,540.478,538.948,0.0
53970.0,STARLINK-4567,PAYLOAD,2023-10-17 17:31:38,15.08840469,0.000118,53.2173,182.5186,95.2044,264.9083,-1.5043e-05,-5.27e-06,0.0,0 STARLINK-4567,1 53970U 22125G   23290.73031131 -.00000527  00000-0 -15043-4 0  9994,2 53970  53.2173 182.5186 0001180  95.2044 264.9083 15.08840469 57528,6917.879,95.438,540.56,538.928,0.0
53970.0,STARLINK-4567,PAYLOAD,2023-10-17 23:53:10,15.08850955,5.62e-05,53.2169,181.3275,83.1091,276.9965,0.00027365,4.071e-05,0.0,0 STARLINK-4567,1 53970U 22125G   23290.99526598  .00004071  00000-0  27365-3 0  9993,2 53970  53.2169 181.3275 0000562  83.1091 276.9965 15.08850955 57501,6917.847,95.437,540.101,539.323,0.0
53970.0,STARLINK-4567,PAYLOAD,2023-10-18 09:25:29,15.08852916,7.65e-05,53.2159,179.5447,87.9281,272.1799,0.00031277,4.695e-05,0.0,0 STARLINK-4567,1 53970U 22125G   23291.39270275  .00004695  00000-0  31277-3 0  9995,2 53970  53.2159 179.5447 0000765  87.9281 272.1799 15.08852916 57623,6917.841,95.437,540.235,539.177,0.0
53970.0,STARLINK-4567,PAYLOAD,2023-10-18 17:22:26,15.08834563,0.0003182,53.2135,178.0562,74.9425,285.1919,-0.00014453,-2.588e-05,0.0,0 STARLINK-4567,1 53970U 22125G   23291.72391895 -.00002588  00000-0 -14453-3 0  9992,2 53970  53.2135 178.0562 0003182  74.9425 285.1919 15.08834563 57672,6917.897,95.438,541.963,537.561,0.0
53970.0,STARLINK-4567,PAYLOAD,2023-10-20 01:10:07,15.08864266,0.0001387,53.2134,172.1123,93.8226,266.2925,0.00077912,0.00012142,0.0,0 STARLINK-4567,1 53970U 22125G   23293.04870114  .00012142  00000-0  77912-3 0  9999,2 53970  53.2134 172.1123 0001387  93.8226 266.2925 15.08864266 57875,6917.806,95.436,540.631,538.712,0.0
53970.0,STARLINK-4567,PAYLOAD,2023-10-20 20:14:46,15.08832233,0.0001208,53.2125,168.5447,86.8791,273.234,-4.8807e-05,-1.064e-05,0.0,0 STARLINK-4567,1 53970U 22125G   23293.84359188 -.00001064  00000-0 -48807-4 0  9995,2 53970  53.2125 168.5447 0001208  86.8791 273.2340 15.08832233 57995,6917.904,95.438,540.605,538.933,0.0
53970.0,STARLINK-4567,PAYLOAD,2023-10-20 21:50:09,15.08830587,0.0001296,53.2137,168.2434,113.7152,246.3976,8.0499e-05,9.93e-06,0.0,0 STARLINK-4567,1 53970U 22125G   23293.90983060  .00000993  00000-0  80499-4 0  9995,2 53970  53.2137 168.2434 0001296 113.7152 246.3976 15.08830587 57940,6917.909,95.438,540.671,538.878,0.0
53970.0,STARLINK-4567,PAYLOAD,2023-10-21 01:00:55,15.0882859,0.0001276,53.2144,167.6519,106.0803,254.0329,0.00020861,3.033e-05,0.0,0 STARLINK-4567,1 53970U 22125G   23294.04231343  .00003033  00000-0  20861-3 0  9995,2 53970  53.2144 167.6519 0001276 106.0803 254.0329 15.08828590 57962,6917.915,95.438,540.663,538.898,0.0
53970.0,STARLINK-4567,PAYLOAD,2023-10-21 20:05:33,15.0885445,0.0001391,53.2151,164.0843,79.8217,280.2932,0.00089959,0.00014064,0.0,0 STARLINK-4567,1 53970U 22125G   23294.83719256  .00014064  00000-0  89959-3 0  9995,2 53970  53.2151 164.0843 0001391  79.8217 280.2932 15.08854450 58141,6917.836,95.437,540.663,538.739,0.0
53970.0,STARLINK-4567,PAYLOAD,2023-10-21 21:40:56,15.08859697,0.0001367,53.2152,163.7858,89.9529,270.162,0.0010768,0.000169,0.0,0 STARLINK-4567,1 53970U 22125G   23294.90343091  .00016900  00000-0  10768-2 0  9995,2 53970  53.2152 163.7858 0001367  89.9529 270.1620 15.08859697 58099,6917.82,95.436,540.631,538.74,0.0
53970.0,STARLINK-4567,PAYLOAD,2023-10-22 08:48:38,15.08853333,0.0001153,53.2162,161.7032,104.0735,256.0385,0.00057113,8.817e-05,0.0,0 STARLINK-4567,1 53970U 22125G   23295.36710718  .00008817  00000-0  57113-3 0  9994,2 53970  53.2162 161.7032 0001153 104.0735 256.0385 15.08853333 58220,6917.84,95.437,540.502,538.907,0.0
53970.0,STARLINK-4567,PAYLOAD,2023-10-22 19:56:20,15.08834238,0.0001496,53.2157,159.6224,102.1021,258.0139,2.1382e-05,5.2e-07,0.0,0 STARLINK-4567,1 53970U 22125G   23295.83079443  .00000052  00000-0  21382-4 0  9992,2 53970  53.2157 159.6224 0001496 102.1021 258.0139 15.08834238 58299,6917.898,95.438,540.798,538.728,0.0
53970.0,STARLINK-4567,PAYLOAD,2023-10-22 21:31:44,15.08823243,0.0001482,53.2159,159.3254,107.0471,253.0683,0.0012014,0.00018875,0.0,0 STARLINK-4567,1 53970U 22125G   23295.89703760  .00018875  00000-0  12014-2 0  9996,2 53970  53.2159 159.3254 0001482 107.0471 253.0683 15.08823243 58247,6917.932,95.439,540.822,538.771,0.0
53970.0,STARLINK-4567,PAYLOAD,2023-10-23 21:22:31,15.08852691,0.0001493,53.216,154.8653,99.2581,260.858,0.0011014,0.0001729,0.0,0 STARLINK-4567,1 53970U 22125G   23296.89063963  .00017290  00000-0  11014-2 0  9990,2 53970  53.2160 154.8653 0001493  99.2581 260.8580 15.08852691 58395,6917.842,95.437,540.739,538.674,0.0
53970.0,STARLINK-4567,PAYLOAD,2023-10-24 00:33:17,15.08855033,0.0001492,53.2157,154.2704,101.6545,258.4615,0.00097483,0.00015267,0.0,0 STARLINK-4567,1 53970U 22125G   23297.02311844  .00015267  00000-0  97483-3 0  9997,2 53970  53.2157 154.2704 0001492 101.6545 258.4615 15.08855033 58473,6917.834,95.437,540.732,538.667,0.0
53970.0,STARLINK-4567,PAYLOAD,2023-10-25 00:24:04,15.08848012,0.0001296,53.2154,149.8091,93.6385,266.4755,0.0003023,4.528e-05,0.0,0 STARLINK-4567,1 53970U 22125G   23298.01671700  .00004528  00000-0  30230-3 0  9992,2 53970  53.2154 149.8091 0001296  93.6385 266.4755 15.08848012 58623,6917.856,95.437,540.617,538.824,0.0
53970.0,STARLINK-4567,PAYLOAD,2023-10-26 19:19:28,15.0884636,0.0001392,53.2154,141.7801,92.7895,267.3256,0.00018633,2.679e-05,0.0,0 STARLINK-4567,1 53970U 22125G   23299.80519588  .00002679  00000-0  18633-3 0  9993,2 53970  53.2154 141.7801 0001392  92.7895 267.3256 15.08846360 58895,6917.861,95.437,540.689,538.763,0.0
53970.0,STARLINK-4567,PAYLOAD,2023-10-26 22:30:15,15.08849757,0.0001359,53.2152,141.1856,93.2603,266.8545,0.00023897,3.518e-05,0.0,0 STARLINK-4567,1 53970U 22125G   23299.93767406  .00003518  00000-0  23897-3 0  9992,2 53970  53.2152 141.1856 0001359  93.2603 266.8545 15.08849757 58857,6917.851,95.437,540.656,538.775,0.0
53970.0,STARLINK-4567,PAYLOAD,2023-10-27 06:27:10,15.08848931,0.0001363,53.2151,139.7003,85.308,274.8068,0.00021062,3.066e-05,0.0,0 STARLINK-4567,1 53970U 22125G   23300.26887437  .00003066  00000-0  21062-3 0  9998,2 53970  53.2151 139.7003 0001363  85.3080 274.8068 15.08848931 58907,6917.853,95.437,540.661,538.775,0.0
53970.0,STARLINK-4567,PAYLOAD,2023-10-27 22:21:02,15.08840193,0.0001518,53.2152,136.7271,84.8245,275.292,0.00020575,2.988e-05,0.0,0 STARLINK-4567,1 53970U 22125G   23300.93127740  .00002988  00000-0  20575-3 0  9996,2 53970  53.2152 136.7271 0001518  84.8245 275.2920 15.08840193 59007,6917.88,95.438,540.795,538.695,0.0
53970.0,STARLINK-4567,PAYLOAD,2023-10-28 20:36:26,15.08841552,0.0001419,53.2144,132.5631,96.9141,263.2012,1.9863e-05,2.8e-07,0.0,0 STARLINK-4567,1 53970U 22125G   23301.85863734  .00000028  00000-0  19863-4 0  9990,2 53970  53.2144 132.5631 0001419  96.9141 263.2012 15.08841552 59145,6917.876,95.437,540.722,538.759,0.0
53970.0,STARLINK-4567,PAYLOAD,2023-10-29 06:08:45,15.0884086,0.0001414,53.2142,130.7793,87.8443,272.2711,0.0001091,1.449e-05,0.0,0 STARLINK-4567,1 53970U 22125G   23302.25607868  .00001449  00000-0  10910-3 0  9990,2 53970  53.2142 130.7793 0001414  87.8443 272.2711 15.08840860 59261,6917.878,95.438,540.721,538.765,0.0
53970.0,STARLINK-4567,PAYLOAD,2023-10-29 22:02:36,15.08846942,0.0001437,53.2151,127.8025,94.4318,265.6839,0.0002418,3.563e-05,0.0,0 STARLINK-4567,1 53970U 22125G   23302.91847495  .00003563  00000-0  24180-3 0  9998,2 53970  53.2151 127.8025 0001437  94.4318 265.6839 15.08846942 59305,6917.859,95.437,540.718,538.73,0.0
53970.0,STARLINK-4567,PAYLOAD,2023-10-30 12:21:04,15.08839761,0.0001533,53.2153,125.1267,97.6014,262.5153,8.7411e-05,1.103e-05,0.0,0 STARLINK-4567,1 53970U 22125G   23303.51463962  .00001103  00000-0  87411-4 0  9993,2 53970  53.2153 125.1267 0001533  97.6014 262.5153 15.08839761 59453,6917.881,95.438,540.807,538.686,0.0
